start=new Date('2021-12-17T00:00:00.000Z').valueOf();
sats=[{"BSTAR":"0.00043706000000","OBJECT_NAME":"STARLINK-1155","MEAN_MOTION_DDOT":"0.0000000000000","DECAY_DATE":null,"SITE":"AFETR","MEAN_MOTION":"15.07902232","OBJECT_TYPE":"PAYLOAD","MEAN_MOTION_DOT":"0.00006502","MEAN_ELEMENT_THEORY":"SGP4","NORAD_CAT_ID":"45053","RA_OF_ASC_NODE":"16.1202","SEMIMAJOR_AXIS":"6920.748","OBJECT_ID":"2020-006K","CLASSIFICATION_TYPE":"U","TLE_LINE2":"2 45053  53.0016  16.1202 0001020  47.0274 313.0800 15.07902232103733","REF_FRAME":"TEME","COUNTRY_CODE":"US","INCLINATION":"53.0016","MEAN_ANOMALY":"313.0800","REV_AT_EPOCH":"10373","ELEMENT_SET_NO":"999","CENTER_NAME":"EARTH","RCS_SIZE":"LARGE","APOAPSIS":"543.319","TIME_SYSTEM":"UTC","LAUNCH_DATE":"2020-01-29","TLE_LINE1":"1 45053U 20006K   21350.56048476  .00006502  00000-0  43706-3 0  9992","EPHEMERIS_TYPE":"0","FILE":"3241867","PERIOD":"95.497","ARG_OF_PERICENTER":"47.0274","EPOCH":"2021-12-16T13:27:05.883264","PERIAPSIS":"541.907","ECCENTRICITY":"0.00010200","GP_ID":"191826990"},{"CLASSIFICATION_TYPE":"U","OBJECT_ID":"2020-006L","TLE_LINE2":"2 45054  53.0572  17.5353 0001550  57.6465 302.4674 15.06405587103753","REF_FRAME":"TEME","COUNTRY_CODE":"US","INCLINATION":"53.0572","MEAN_ANOMALY":"302.4674","REV_AT_EPOCH":"10375","ELEMENT_SET_NO":"999","BSTAR":"0.00000803130000","OBJECT_NAME":"STARLINK-1156","MEAN_MOTION_DDOT":"0.0000000000000","DECAY_DATE":null,"MEAN_MOTION":"15.06405587","SITE":"AFETR","OBJECT_TYPE":"PAYLOAD","MEAN_ELEMENT_THEORY":"SGP4","MEAN_MOTION_DOT":"-0.00000162","NORAD_CAT_ID":"45054","RA_OF_ASC_NODE":"17.5353","SEMIMAJOR_AXIS":"6925.331","EPOCH":"2021-12-16T18:34:08.327136","ARG_OF_PERICENTER":"57.6465","PERIAPSIS":"546.123","GP_ID":"191858879","ECCENTRICITY":"0.00015500","CENTER_NAME":"EARTH","RCS_SIZE":"LARGE","APOAPSIS":"548.270","TIME_SYSTEM":"UTC","LAUNCH_DATE":"2020-01-29","TLE_LINE1":"1 45054U 20006L   21350.77370749 -.00000162  00000-0  80313-5 0  9991","FILE":"3242223","EPHEMERIS_TYPE":"0","PERIOD":"95.592"},{"ECCENTRICITY":"0.00017790","GP_ID":"191859631","EPOCH":"2021-12-16T18:55:22.620000","ARG_OF_PERICENTER":"59.1714","PERIAPSIS":"546.002","TLE_LINE1":"1 45057U 20006P   21350.78845625 -.00000196  00000-0  57359-5 0  9996","EPHEMERIS_TYPE":"0","FILE":"3242223","LAUNCH_DATE":"2020-01-29","PERIOD":"95.593","APOAPSIS":"548.466","RCS_SIZE":"LARGE","CENTER_NAME":"EARTH","TIME_SYSTEM":"UTC","REV_AT_EPOCH":"10376","MEAN_ANOMALY":"300.9450","ELEMENT_SET_NO":"999","OBJECT_ID":"2020-006P","CLASSIFICATION_TYPE":"U","TLE_LINE2":"2 45057  53.0552  17.4547 0001779  59.1714 300.9450 15.06393245103768","REF_FRAME":"TEME","INCLINATION":"53.0552","COUNTRY_CODE":"US","OBJECT_TYPE":"PAYLOAD","NORAD_CAT_ID":"45057","MEAN_ELEMENT_THEORY":"SGP4","MEAN_MOTION_DOT":"-0.00000196","SEMIMAJOR_AXIS":"6925.369","RA_OF_ASC_NODE":"17.4547","BSTAR":"0.00000573590000","OBJECT_NAME":"STARLINK-1159","MEAN_MOTION_DDOT":"0.0000000000000","SITE":"AFETR","MEAN_MOTION":"15.06393245","DECAY_DATE":null},{"GP_ID":"191859382","ECCENTRICITY":"0.00014810","PERIAPSIS":"546.169","ARG_OF_PERICENTER":"62.0550","EPOCH":"2021-12-16T18:44:44.816928","PERIOD":"95.592","TLE_LINE1":"1 45058U 20006Q   21350.78107427  .00002494  00000-0  18627-3 0  9993","FILE":"3242223","EPHEMERIS_TYPE":"0","LAUNCH_DATE":"2020-01-29","APOAPSIS":"548.220","RCS_SIZE":"LARGE","CENTER_NAME":"EARTH","TIME_SYSTEM":"UTC","REV_AT_EPOCH":"10376","MEAN_ANOMALY":"298.0588","ELEMENT_SET_NO":"999","TLE_LINE2":"2 45058  53.0549  17.5058 0001481  62.0550 298.0588 15.06406147103769","REF_FRAME":"TEME","CLASSIFICATION_TYPE":"U","OBJECT_ID":"2020-006Q","INCLINATION":"53.0549","COUNTRY_CODE":"US","NORAD_CAT_ID":"45058","MEAN_ELEMENT_THEORY":"SGP4","MEAN_MOTION_DOT":"0.00002494","OBJECT_TYPE":"PAYLOAD","SEMIMAJOR_AXIS":"6925.330","RA_OF_ASC_NODE":"17.5058","OBJECT_NAME":"STARLINK-1162","BSTAR":"0.00018627000000","MEAN_MOTION":"15.06406147","SITE":"AFETR","DECAY_DATE":null,"MEAN_MOTION_DDOT":"0.0000000000000"},{"EPOCH":"2021-12-16T19:16:36.015168","ARG_OF_PERICENTER":"57.2066","PERIAPSIS":"545.941","ECCENTRICITY":"0.00018310","GP_ID":"191858130","TIME_SYSTEM":"UTC","CENTER_NAME":"EARTH","RCS_SIZE":"LARGE","APOAPSIS":"548.477","LAUNCH_DATE":"2020-01-29","FILE":"3242223","TLE_LINE1":"1 45059U 20006R   21350.80319462  .00001827  00000-0  14155-3 0  9992","EPHEMERIS_TYPE":"0","PERIOD":"95.592","COUNTRY_CODE":"US","INCLINATION":"53.0561","OBJECT_ID":"2020-006R","CLASSIFICATION_TYPE":"U","REF_FRAME":"TEME","TLE_LINE2":"2 45059  53.0561  17.3971 0001831  57.2066 302.9099 15.06401468103766","ELEMENT_SET_NO":"999","MEAN_ANOMALY":"302.9099","REV_AT_EPOCH":"10376","MEAN_MOTION_DDOT":"0.0000000000000","DECAY_DATE":null,"MEAN_MOTION":"15.06401468","SITE":"AFETR","BSTAR":"0.00014155000000","OBJECT_NAME":"STARLINK-1165","RA_OF_ASC_NODE":"17.3971","SEMIMAJOR_AXIS":"6925.344","OBJECT_TYPE":"PAYLOAD","MEAN_MOTION_DOT":"0.00001827","MEAN_ELEMENT_THEORY":"SGP4","NORAD_CAT_ID":"45059"},{"INCLINATION":"53.0544","COUNTRY_CODE":"US","CLASSIFICATION_TYPE":"U","OBJECT_ID":"2020-006S","TLE_LINE2":"2 45060  53.0544  17.4186 0001689  59.2836 300.8320 15.06399104103763","REF_FRAME":"TEME","ELEMENT_SET_NO":"999","REV_AT_EPOCH":"10376","MEAN_ANOMALY":"300.8320","MEAN_MOTION_DDOT":"0.0000000000000","SITE":"AFETR","MEAN_MOTION":"15.06399104","DECAY_DATE":null,"BSTAR":"0.00016966000000","OBJECT_NAME":"STARLINK-1166","SEMIMAJOR_AXIS":"6925.351","RA_OF_ASC_NODE":"17.4186","OBJECT_TYPE":"PAYLOAD","NORAD_CAT_ID":"45060","MEAN_ELEMENT_THEORY":"SGP4","MEAN_MOTION_DOT":"0.00002246","EPOCH":"2021-12-16T19:11:18.000960","ARG_OF_PERICENTER":"59.2836","PERIAPSIS":"546.047","GP_ID":"191858380","ECCENTRICITY":"0.00016890","TIME_SYSTEM":"UTC","APOAPSIS":"548.386","RCS_SIZE":"LARGE","CENTER_NAME":"EARTH","TLE_LINE1":"1 45060U 20006S   21350.79951390  .00002246  00000-0  16966-3 0  9992","EPHEMERIS_TYPE":"0","FILE":"3242223","LAUNCH_DATE":"2020-01-29","PERIOD":"95.592"},{"REV_AT_EPOCH":"10376","MEAN_ANOMALY":"297.4896","ELEMENT_SET_NO":"999","CLASSIFICATION_TYPE":"U","OBJECT_ID":"2020-006T","TLE_LINE2":"2 45061  53.0564  17.3890 0001794  62.6276 297.4896 15.06407459103762","REF_FRAME":"TEME","INCLINATION":"53.0564","COUNTRY_CODE":"US","OBJECT_TYPE":"PAYLOAD","NORAD_CAT_ID":"45061","MEAN_MOTION_DOT":"0.00001627","MEAN_ELEMENT_THEORY":"SGP4","SEMIMAJOR_AXIS":"6925.326","RA_OF_ASC_NODE":"17.3890","BSTAR":"0.00012808000000","OBJECT_NAME":"STARLINK-1169","MEAN_MOTION_DDOT":"0.0000000000000","MEAN_MOTION":"15.06407459","SITE":"AFETR","DECAY_DATE":null,"ECCENTRICITY":"0.00017940","GP_ID":"191859132","ARG_OF_PERICENTER":"62.6276","EPOCH":"2021-12-16T19:21:54.103680","PERIAPSIS":"545.948","EPHEMERIS_TYPE":"0","TLE_LINE1":"1 45061U 20006T   21350.80687620  .00001627  00000-0  12808-3 0  9990","FILE":"3242223","LAUNCH_DATE":"2020-01-29","PERIOD":"95.592","APOAPSIS":"548.433","RCS_SIZE":"LARGE","CENTER_NAME":"EARTH","TIME_SYSTEM":"UTC"},{"INCLINATION":"53.0557","COUNTRY_CODE":"US","CLASSIFICATION_TYPE":"U","OBJECT_ID":"2020-006U","REF_FRAME":"TEME","TLE_LINE2":"2 45062  53.0557  17.4403 0001601  59.6836 300.4312 15.06394493103762","ELEMENT_SET_NO":"999","REV_AT_EPOCH":"10376","MEAN_ANOMALY":"300.4312","MEAN_MOTION_DDOT":"0.0000000000000","MEAN_MOTION":"15.06394493","SITE":"AFETR","DECAY_DATE":null,"BSTAR":"0.00002857200000","OBJECT_NAME":"STARLINK-1171","SEMIMAJOR_AXIS":"6925.365","RA_OF_ASC_NODE":"17.4403","OBJECT_TYPE":"PAYLOAD","NORAD_CAT_ID":"45062","MEAN_MOTION_DOT":"0.00000144","MEAN_ELEMENT_THEORY":"SGP4","EPOCH":"2021-12-16T19:00:40.950432","ARG_OF_PERICENTER":"59.6836","PERIAPSIS":"546.122","ECCENTRICITY":"0.00016010","GP_ID":"191859882","TIME_SYSTEM":"UTC","RCS_SIZE":"LARGE","APOAPSIS":"548.339","CENTER_NAME":"EARTH","FILE":"3242223","TLE_LINE1":"1 45062U 20006U   21350.79214063  .00000144  00000-0  28572-4 0  9995","EPHEMERIS_TYPE":"0","LAUNCH_DATE":"2020-01-29","PERIOD":"95.592"},{"TIME_SYSTEM":"UTC","CENTER_NAME":"EARTH","APOAPSIS":"548.352","RCS_SIZE":"LARGE","LAUNCH_DATE":"2020-01-29","FILE":"3242223","TLE_LINE1":"1 45064U 20006W   21350.73869379  .00000492  00000-0  51921-4 0  9997","EPHEMERIS_TYPE":"0","PERIOD":"95.592","EPOCH":"2021-12-16T17:43:43.143456","ARG_OF_PERICENTER":"59.0251","PERIAPSIS":"546.057","ECCENTRICITY":"0.00016570","GP_ID":"191858630","MEAN_MOTION_DDOT":"0.0000000000000","DECAY_DATE":null,"MEAN_MOTION":"15.06402809","SITE":"AFETR","BSTAR":"0.00005192100000","OBJECT_NAME":"STARLINK-1133","RA_OF_ASC_NODE":"357.6759","SEMIMAJOR_AXIS":"6925.340","OBJECT_TYPE":"PAYLOAD","MEAN_ELEMENT_THEORY":"SGP4","MEAN_MOTION_DOT":"0.00000492","NORAD_CAT_ID":"45064","COUNTRY_CODE":"US","INCLINATION":"53.0552","OBJECT_ID":"2020-006W","CLASSIFICATION_TYPE":"U","TLE_LINE2":"2 45064  53.0552 357.6759 0001657  59.0251 301.0901 15.06402809104031","REF_FRAME":"TEME","ELEMENT_SET_NO":"999","MEAN_ANOMALY":"301.0901","REV_AT_EPOCH":"10403"},{"EPOCH":"2021-12-16T17:49:01.846272","ARG_OF_PERICENTER":"59.0219","PERIAPSIS":"546.083","GP_ID":"191858880","ECCENTRICITY":"0.00016430","TIME_SYSTEM":"UTC","CENTER_NAME":"EARTH","APOAPSIS":"548.359","RCS_SIZE":"LARGE","LAUNCH_DATE":"2020-01-29","FILE":"3242223","TLE_LINE1":"1 45065U 20006X   21350.74238248 -.00000192  00000-0  59814-5 0  9992","EPHEMERIS_TYPE":"0","PERIOD":"95.592","COUNTRY_CODE":"US","INCLINATION":"53.0551","OBJECT_ID":"2020-006X","CLASSIFICATION_TYPE":"U","REF_FRAME":"TEME","TLE_LINE2":"2 45065  53.0551 357.6812 0001643  59.0219 301.0931 15.06397475104035","ELEMENT_SET_NO":"999","MEAN_ANOMALY":"301.0931","REV_AT_EPOCH":"10403","MEAN_MOTION_DDOT":"0.0000000000000","DECAY_DATE":null,"SITE":"AFETR","MEAN_MOTION":"15.06397475","BSTAR":"0.00000598140000","OBJECT_NAME":"STARLINK-1139","RA_OF_ASC_NODE":"357.6812","SEMIMAJOR_AXIS":"6925.356","OBJECT_TYPE":"PAYLOAD","MEAN_MOTION_DOT":"-0.00000192","MEAN_ELEMENT_THEORY":"SGP4","NORAD_CAT_ID":"45065"}];
